start=new Date('2022-03-01T00:00:00.000Z').valueOf();
sats=[{"LAUNCH_DATE":"2020-10-06","RA_OF_ASC_NODE":"274.9145","INCLINATION":"53.0549","EPOCH":"2022-02-28T20:46:35.816448","SITE":"AFETR","ECCENTRICITY":"0.00016900","MEAN_ANOMALY":"275.8422","CLASSIFICATION_TYPE":"U","ELEMENT_SET_NO":"999","DECAY_DATE":null,"REV_AT_EPOCH":"7824","OBJECT_TYPE":"PAYLOAD","TLE_LINE2":"2 46541  53.0549 274.9145 0001690  84.2759 275.8422 15.06390797 78249","FILE":"3334872","COUNTRY_CODE":"US","APOAPSIS":"548.412","NORAD_CAT_ID":"46541","OBJECT_ID":"2020-070K","RCS_SIZE":"LARGE","BSTAR":"-0.00005523300000","TLE_LINE1":"1 46541U 20070K   22059.86569232 -.00001104  00000-0 -55233-4 0  9998","EPHEMERIS_TYPE":"0","MEAN_ELEMENT_THEORY":"SGP4","SEMIMAJOR_AXIS":"6925.377","PERIOD":"95.593","MEAN_MOTION_DOT":"-0.00001104","OBJECT_NAME":"STARLINK-1687","MEAN_MOTION_DDOT":"0.0000000000000","REF_FRAME":"TEME","TIME_SYSTEM":"UTC","ARG_OF_PERICENTER":"84.2759","GP_ID":"197410690","CENTER_NAME":"EARTH","PERIAPSIS":"546.071","MEAN_MOTION":"15.06390797"},{"MEAN_MOTION_DDOT":"0.0000000000000","OBJECT_NAME":"STARLINK-1692","MEAN_MOTION_DOT":"0.00000344","PERIOD":"95.592","SEMIMAJOR_AXIS":"6925.350","CENTER_NAME":"EARTH","GP_ID":"197411442","PERIAPSIS":"546.266","MEAN_MOTION":"15.06399414","TIME_SYSTEM":"UTC","ARG_OF_PERICENTER":"66.4775","REF_FRAME":"TEME","TLE_LINE1":"1 46542U 20070L   22059.86754139  .00000344  00000-0  41994-4 0  9993","BSTAR":"0.00004199400000","MEAN_ELEMENT_THEORY":"SGP4","EPHEMERIS_TYPE":"0","RCS_SIZE":"LARGE","OBJECT_ID":"2020-070L","OBJECT_TYPE":"PAYLOAD","REV_AT_EPOCH":"7796","APOAPSIS":"548.165","NORAD_CAT_ID":"46542","COUNTRY_CODE":"US","TLE_LINE2":"2 46542  53.0545 294.9085 0001371  66.4775 293.6358 15.06399414 77966","FILE":"3334872","DECAY_DATE":null,"ELEMENT_SET_NO":"999","CLASSIFICATION_TYPE":"U","SITE":"AFETR","MEAN_ANOMALY":"293.6358","ECCENTRICITY":"0.00013710","EPOCH":"2022-02-28T20:49:15.576096","RA_OF_ASC_NODE":"294.9085","LAUNCH_DATE":"2020-10-06","INCLINATION":"53.0545"},{"INCLINATION":"53.0537","LAUNCH_DATE":"2020-10-06","RA_OF_ASC_NODE":"294.6680","EPOCH":"2022-02-28T22:03:34.312896","ECCENTRICITY":"0.00019120","MEAN_ANOMALY":"300.9293","SITE":"AFETR","CLASSIFICATION_TYPE":"U","ELEMENT_SET_NO":"999","DECAY_DATE":null,"FILE":"3334872","TLE_LINE2":"2 46543  53.0537 294.6680 0001912  59.1884 300.9293 15.06404473 77970","COUNTRY_CODE":"US","NORAD_CAT_ID":"46543","APOAPSIS":"548.524","REV_AT_EPOCH":"7797","OBJECT_TYPE":"PAYLOAD","OBJECT_ID":"2020-070M","RCS_SIZE":"LARGE","MEAN_ELEMENT_THEORY":"SGP4","EPHEMERIS_TYPE":"0","BSTAR":"0.00025314000000","TLE_LINE1":"1 46543U 20070M   22059.91914714  .00003491  00000-0  25314-3 0  9990","REF_FRAME":"TEME","ARG_OF_PERICENTER":"59.1884","TIME_SYSTEM":"UTC","GP_ID":"197411193","PERIAPSIS":"545.876","CENTER_NAME":"EARTH","MEAN_MOTION":"15.06404473","SEMIMAJOR_AXIS":"6925.335","PERIOD":"95.592","MEAN_MOTION_DOT":"0.00003491","MEAN_MOTION_DDOT":"0.0000000000000","OBJECT_NAME":"STARLINK-1693"},{"TLE_LINE2":"2 46544  53.0552 279.6985 0001710  65.5960 294.5207 15.06391505 78189","FILE":"3334872","COUNTRY_CODE":"US","NORAD_CAT_ID":"46544","APOAPSIS":"548.424","REV_AT_EPOCH":"7818","OBJECT_TYPE":"PAYLOAD","OBJECT_ID":"2020-070N","RCS_SIZE":"LARGE","MEAN_ELEMENT_THEORY":"SGP4","EPHEMERIS_TYPE":"0","BSTAR":"0.00004480500000","TLE_LINE1":"1 46544U 20070N   22059.91500461  .00000386  00000-0  44805-4 0  9998","REF_FRAME":"TEME","TIME_SYSTEM":"UTC","ARG_OF_PERICENTER":"65.5960","GP_ID":"197409941","PERIAPSIS":"546.055","CENTER_NAME":"EARTH","MEAN_MOTION":"15.06391505","SEMIMAJOR_AXIS":"6925.375","PERIOD":"95.593","MEAN_MOTION_DOT":"0.00000386","MEAN_MOTION_DDOT":"0.0000000000000","OBJECT_NAME":"STARLINK-1694","INCLINATION":"53.0552","LAUNCH_DATE":"2020-10-06","RA_OF_ASC_NODE":"279.6985","EPOCH":"2022-02-28T21:57:36.398304","ECCENTRICITY":"0.00017100","MEAN_ANOMALY":"294.5207","SITE":"AFETR","ELEMENT_SET_NO":"999","CLASSIFICATION_TYPE":"U","DECAY_DATE":null},{"ECCENTRICITY":"0.00014740","MEAN_ANOMALY":"285.9170","SITE":"AFETR","ELEMENT_SET_NO":"999","CLASSIFICATION_TYPE":"U","DECAY_DATE":null,"INCLINATION":"53.0554","LAUNCH_DATE":"2020-10-06","RA_OF_ASC_NODE":"294.8206","EPOCH":"2022-02-28T21:21:06.427008","MEAN_ELEMENT_THEORY":"SGP4","EPHEMERIS_TYPE":"0","TLE_LINE1":"1 46545U 20070P   22059.88965772  .00000532  00000-0  54612-4 0  9995","BSTAR":"0.00005461200000","ARG_OF_PERICENTER":"74.1982","TIME_SYSTEM":"UTC","REF_FRAME":"TEME","PERIAPSIS":"546.213","GP_ID":"197410191","CENTER_NAME":"EARTH","MEAN_MOTION":"15.06393271","PERIOD":"95.593","SEMIMAJOR_AXIS":"6925.369","OBJECT_NAME":"STARLINK-1696","MEAN_MOTION_DDOT":"0.0000000000000","MEAN_MOTION_DOT":"0.00000532","FILE":"3334872","TLE_LINE2":"2 46545  53.0554 294.8206 0001474  74.1982 285.9170 15.06393271 77964","APOAPSIS":"548.255","NORAD_CAT_ID":"46545","COUNTRY_CODE":"US","REV_AT_EPOCH":"7796","OBJECT_TYPE":"PAYLOAD","OBJECT_ID":"2020-070P","RCS_SIZE":"LARGE"},{"ELEMENT_SET_NO":"999","CLASSIFICATION_TYPE":"U","DECAY_DATE":null,"ECCENTRICITY":"0.00014640","MEAN_ANOMALY":"291.2494","SITE":"AFETR","EPOCH":"2022-02-28T20:59:52.303488","INCLINATION":"53.0539","LAUNCH_DATE":"2020-10-06","RA_OF_ASC_NODE":"294.8682","ARG_OF_PERICENTER":"68.8652","TIME_SYSTEM":"UTC","REF_FRAME":"TEME","GP_ID":"197410943","CENTER_NAME":"EARTH","PERIAPSIS":"546.168","MEAN_MOTION":"15.06410341","PERIOD":"95.591","SEMIMAJOR_AXIS":"6925.317","OBJECT_NAME":"STARLINK-1697","MEAN_MOTION_DDOT":"0.0000000000000","MEAN_MOTION_DOT":"0.00004476","MEAN_ELEMENT_THEORY":"SGP4","EPHEMERIS_TYPE":"0","TLE_LINE1":"1 46546U 20070Q   22059.87491092  .00004476  00000-0  31909-3 0  9998","BSTAR":"0.00031909000000","OBJECT_ID":"2020-070Q","RCS_SIZE":"LARGE","TLE_LINE2":"2 46546  53.0539 294.8682 0001464  68.8652 291.2494 15.06410341 77966","FILE":"3334872","NORAD_CAT_ID":"46546","APOAPSIS":"548.196","COUNTRY_CODE":"US","REV_AT_EPOCH":"7796","OBJECT_TYPE":"PAYLOAD"},{"EPOCH":"2022-02-28T21:42:20.268864","LAUNCH_DATE":"2020-10-06","RA_OF_ASC_NODE":"294.7403","INCLINATION":"53.0540","CLASSIFICATION_TYPE":"U","ELEMENT_SET_NO":"999","DECAY_DATE":null,"SITE":"AFETR","ECCENTRICITY":"0.00017410","MEAN_ANOMALY":"289.4321","OBJECT_ID":"2020-070R","RCS_SIZE":"LARGE","REV_AT_EPOCH":"7797","OBJECT_TYPE":"PAYLOAD","TLE_LINE2":"2 46547  53.0540 294.7403 0001741  70.6856 289.4321 15.06397118 77979","FILE":"3334872","COUNTRY_CODE":"US","APOAPSIS":"548.428","NORAD_CAT_ID":"46547","SEMIMAJOR_AXIS":"6925.357","PERIOD":"95.592","MEAN_MOTION_DOT":"0.00000835","MEAN_MOTION_DDOT":"0.0000000000000","OBJECT_NAME":"STARLINK-1698","REF_FRAME":"TEME","TIME_SYSTEM":"UTC","ARG_OF_PERICENTER":"70.6856","GP_ID":"197411693","PERIAPSIS":"546.017","CENTER_NAME":"EARTH","MEAN_MOTION":"15.06397118","BSTAR":"0.00007493700000","TLE_LINE1":"1 46547U 20070R   22059.90440126  .00000835  00000-0  74937-4 0  9999","EPHEMERIS_TYPE":"0","MEAN_ELEMENT_THEORY":"SGP4"},{"ELEMENT_SET_NO":"999","CLASSIFICATION_TYPE":"U","DECAY_DATE":null,"SITE":"AFETR","ECCENTRICITY":"0.00015090","MEAN_ANOMALY":"285.5959","EPOCH":"2022-02-28T21:58:15.857184","LAUNCH_DATE":"2020-10-06","RA_OF_ASC_NODE":"294.6980","INCLINATION":"53.0530","PERIOD":"95.592","SEMIMAJOR_AXIS":"6925.352","OBJECT_NAME":"STARLINK-1699","MEAN_MOTION_DDOT":"0.0000000000000","MEAN_MOTION_DOT":"0.00001980","ARG_OF_PERICENTER":"74.5196","TIME_SYSTEM":"UTC","REF_FRAME":"TEME","PERIAPSIS":"546.172","GP_ID":"197410441","CENTER_NAME":"EARTH","MEAN_MOTION":"15.06398806","TLE_LINE1":"1 46548U 20070S   22059.91546131  .00001980  00000-0  15176-3 0  9995","BSTAR":"0.00015176000000","EPHEMERIS_TYPE":"0","MEAN_ELEMENT_THEORY":"SGP4","OBJECT_ID":"2020-070S","RCS_SIZE":"LARGE","REV_AT_EPOCH":"7797","OBJECT_TYPE":"PAYLOAD","TLE_LINE2":"2 46548  53.0530 294.6980 0001509  74.5196 285.5959 15.06398806 77979","FILE":"3334872","APOAPSIS":"548.262","NORAD_CAT_ID":"46548","COUNTRY_CODE":"US"},{"MEAN_MOTION_DOT":"0.00002763","OBJECT_NAME":"STARLINK-1700","MEAN_MOTION_DDOT":"0.0000000000000","SEMIMAJOR_AXIS":"6925.352","PERIOD":"95.592","GP_ID":"197410691","PERIAPSIS":"546.155","MEAN_MOTION":"15.06398924","CENTER_NAME":"EARTH","REF_FRAME":"TEME","TIME_SYSTEM":"UTC","ARG_OF_PERICENTER":"74.9604","BSTAR":"0.00020432000000","TLE_LINE1":"1 46549U 20070T   22059.81225039  .00002763  00000-0  20432-3 0  9997","EPHEMERIS_TYPE":"0","MEAN_ELEMENT_THEORY":"SGP4","RCS_SIZE":"LARGE","OBJECT_ID":"2020-070T","OBJECT_TYPE":"PAYLOAD","REV_AT_EPOCH":"7795","COUNTRY_CODE":"US","NORAD_CAT_ID":"46549","APOAPSIS":"548.279","FILE":"3334872","TLE_LINE2":"2 46549  53.0537 295.1492 0001534  74.9604 285.1555 15.06398924 77954","DECAY_DATE":null,"ELEMENT_SET_NO":"999","CLASSIFICATION_TYPE":"U","SITE":"AFETR","MEAN_ANOMALY":"285.1555","ECCENTRICITY":"0.00015340","EPOCH":"2022-02-28T19:29:38.433696","RA_OF_ASC_NODE":"295.1492","LAUNCH_DATE":"2020-10-06","INCLINATION":"53.0537"},{"ELEMENT_SET_NO":"999","CLASSIFICATION_TYPE":"U","DECAY_DATE":null,"SITE":"AFETR","ECCENTRICITY":"0.00017800","MEAN_ANOMALY":"296.3216","EPOCH":"2022-02-28T20:43:56.451648","LAUNCH_DATE":"2020-10-06","RA_OF_ASC_NODE":"294.9258","INCLINATION":"53.0546","PERIOD":"95.592","SEMIMAJOR_AXIS":"6925.331","MEAN_MOTION_DDOT":"0.0000000000000","OBJECT_NAME":"STARLINK-1701","MEAN_MOTION_DOT":"0.00001360","TIME_SYSTEM":"UTC","ARG_OF_PERICENTER":"63.7955","REF_FRAME":"TEME","GP_ID":"197411443","CENTER_NAME":"EARTH","PERIAPSIS":"545.964","MEAN_MOTION":"15.06405614","TLE_LINE1":"1 46550U 20070U   22059.86384782  .00001360  00000-0  11020-3 0  9990","BSTAR":"0.00011020000000","MEAN_ELEMENT_THEORY":"SGP4","EPHEMERIS_TYPE":"0","OBJECT_ID":"2020-070U","RCS_SIZE":"LARGE","REV_AT_EPOCH":"7796","OBJECT_TYPE":"PAYLOAD","TLE_LINE2":"2 46550  53.0546 294.9258 0001780  63.7955 296.3216 15.06405614 77965","FILE":"3334872","NORAD_CAT_ID":"46550","APOAPSIS":"548.429","COUNTRY_CODE":"US"}];
